[
    [
        "GPS BIIR-5  (PRN 22)",
        "1 26407U 00040A   26140.37351625  .00000009  00000+0  00000+0 0  9995",
        "2 26407  54.8557 216.2671 0121372 302.3556  59.1031  2.00557405189397"
    ],
    [
        "GPS BIIR-8  (PRN 16)",
        "1 27663U 03005A   26140.68353638  .00000005  00000+0  00000+0 0  9990",
        "2 27663  54.8866 216.0617 0147965  53.0178 307.9086  2.00561986170752"
    ],
    [
        "GPS BIIR-11 (PRN 19)",
        "1 28190U 04009A   26140.74422878 -.00000037  00000+0  00000+0 0  9997",
        "2 28190  54.8535 276.7955 0114896 171.8598  26.6658  2.00555514162392"
    ],
    [
        "GPS BIIR-13 (PRN 02)",
        "1 28474U 04045A   26140.51751951 -.00000073  00000+0  00000+0 0  9994",
        "2 28474  55.1525 326.0102 0169837 315.6873 144.1699  2.00554536157873"
    ],
    [
        "GPS BIIRM-1 (PRN 17)",
        "1 28874U 05038A   26140.42808687 -.00000033  00000+0  00000+0 0  9996",
        "2 28874  54.9017 274.2973 0127704 295.9826  61.7849  2.00567497151274"
    ],
    [
        "GPS BIIRM-2 (PRN 31)",
        "1 29486U 06042A   26140.18343903  .00000056  00000+0  00000+0 0  9994",
        "2 29486  54.7064 152.4505 0106195  53.8185  25.3214  2.00571375143837"
    ],
    [
        "GPS BIIRM-3 (PRN 12)",
        "1 29601U 06052A   26140.49716701  .00000008  00000+0  00000+0 0  9995",
        "2 29601  54.9384 215.1038 0085680  90.5850 270.4658  2.00556589142859"
    ],
    [
        "GPS BIIRM-4 (PRN 15)",
        "1 32260U 07047A   26140.30335457 -.00000013  00000+0  00000+0 0  9997",
        "2 32260  54.0757  81.2145 0165862  86.8522 275.0168  2.00556531136256"
    ],
    [
        "GPS BIIRM-5 (PRN 29)",
        "1 32384U 07062A   26140.59294359 -.00000034  00000+0  00000+0 0  9990",
        "2 32384  55.0547 275.2615 0035203 163.8276 172.3061  2.00558310134958"
    ],
    [
        "GPS BIIRM-6 (PRN 07)",
        "1 32711U 08012A   26140.21705566  .00000056  00000+0  00000+0 0  9999",
        "2 32711  54.4928 151.0420 0210568 247.4727 110.3076  2.00571627133191"
    ],
    [
        "GPS BIIRM-8 (PRN 05)",
        "1 35752U 09043A   26140.94838076 -.00000087  00000+0  00000+0 0  9990",
        "2 35752  56.1938  28.5216 0053449  82.1083  97.7047  2.00555630122811"
    ],
    [
        "GPS BIIF-1  (PRN 25)",
        "1 36585U 10022A   26140.60022088  .00000011  00000+0  00000+0 0  9991",
        "2 36585  54.2728 209.6735 0126364  66.1075 340.0810  2.00561000117049"
    ],
    [
        "GPS BIIF-3  (PRN 24)",
        "1 38833U 12053A   26140.39650313  .00000054  00000+0  00000+0 0  9996",
        "2 38833  53.5805 144.7377 0178914  65.3858 296.4798  2.00566978 98882"
    ],
    [
        "GPS BIIF-4  (PRN 27)",
        "1 39166U 13023A   26140.26272253 -.00000030  00000+0  00000+0 0  9998",
        "2 39166  54.5269 270.1108 0141778  50.8847 310.3558  2.00563555 95322"
    ],
    [
        "GPS BIIF-5  (PRN 30)",
        "1 39533U 14008A   26140.76256878  .00000054  00000+0  00000+0 0  9995",
        "2 39533  53.6496 150.4381 0084131 230.7720 128.4990  2.00557982 89130"
    ],
    [
        "GPS BIIF-6  (PRN 06)",
        "1 39741U 14026A   26139.54226747 -.00000073  00000+0  00000+0 0  9994",
        "2 39741  56.5117 332.6324 0038515 326.8833  32.8887  2.00563006 87967"
    ],
    [
        "GPS BIIF-7  (PRN 09)",
        "1 40105U 14045A   26140.13212899  .00000003  00000+0  00000+0 0  9993",
        "2 40105  55.3358  89.5822 0032291 118.5671 241.7267  2.00556445 85510"
    ],
    [
        "GPS BIIF-8  (PRN 03)",
        "1 40294U 14068A   26140.50287016 -.00000081  00000+0  00000+0 0  9998",
        "2 40294  56.9692  32.0214 0066258  69.6062 291.1438  2.00574420 84651"
    ],
    [
        "GPS BIIF-9  (PRN 26)",
        "1 40534U 15013A   26140.14068464  .00000020  00000+0  00000+0 0  9992",
        "2 40534  53.1703 205.3377 0109037  40.0219 320.8549  2.00553030 81266"
    ],
    [
        "GPS BIIF-10 (PRN 08)",
        "1 40730U 15033A   26140.29973745 -.00000030  00000+0  00000+0 0  9997",
        "2 40730  54.0050 268.2360 0115011  30.1069 330.5399  2.00557583 79435"
    ],
    [
        "GPS BIIF-11 (PRN 10)",
        "1 41019U 15062A   26139.85830145 -.00000078  00000+0  00000+0 0  9998",
        "2 41019  56.9411  31.9026 0111371 231.3358 127.7022  2.00567065 77267"
    ],
    [
        "GPS BIIF-12 (PRN 32)",
        "1 41328U 16007A   26139.94740867  .00000005  00000+0  00000+0 0  9991",
        "2 41328  55.5075  90.5786 0096074 247.2890 111.6621  2.00552906 75278"
    ],
    [
        "GPS BIII-1  (PRN 04)",
        "1 43873U 18109A   26140.28832900  .00000011  00000+0  00000+0 0  9999",
        "2 43873  55.6661  93.2866 0037942 198.6197 301.0092  2.00560163 54519"
    ],
    [
        "GPS BIII-2  (PRN 18)",
        "1 44506U 19056A   26140.82786065 -.00000077  00000+0  00000+0 0  9998",
        "2 44506  55.6503 332.2294 0060640 197.3789 234.7170  2.00569187 49522"
    ],
    [
        "GPS BIII-3  (PRN 23)",
        "1 45854U 20041A   26139.57960495 -.00000078  00000+0  00000+0 0  9993",
        "2 45854  56.6519  30.0532 0062831 204.8599 345.4759  2.00559055 43465"
    ],
    [
        "GPS BIII-4  (PRN 14)",
        "1 46826U 20078A   26140.35447030  .00000012  00000+0  00000+0 0  9993",
        "2 46826  53.9832 211.9075 0072304 206.3760 158.8802  2.00564764 40957"
    ],
    [
        "GPS BIII-5  (PRN 11)",
        "1 48859U 21054A   26137.34480044 -.00000068  00000+0  00000+0 0  9995",
        "2 48859  55.1876 333.6992 0024566 229.1389 308.8619  2.00570739 36131"
    ],
    [
        "GPS BIII-6  (PRN 28)",
        "1 55268U 23009A   26140.53842924  .00000057  00000+0  00000+0 0  9990",
        "2 55268  55.1196 149.6044 0006779 315.8855  46.0765  2.00573311 24698"
    ],
    [
        "GPS BIII-7  (PRN 01)",
        "1 62339U 24242A   26140.67243697 -.00000081  00000+0  00000+0 0  9992",
        "2 62339  54.8606 335.2961 0017301   3.5784 177.6674  2.00570826 10708"
    ],
    [
        "GPS BIII-8  (PRN 21)",
        "1 64202U 25116A   26140.41655708 -.00000083  00000+0  00000+0 0  9998",
        "2 64202  55.2172  32.2478 0008479 336.1133 202.6616  2.00577610  7314"
    ],
    [
        "GPS BIII-9  (PRN 20)",
        "1 67588U 26017A   26139.77935463  .00000002  00000+0  00000+0 0  9995",
        "2 67588  55.0711  89.8949 0022793 256.0652 103.6488  2.00571618431043"
    ]
]